STARLINK-4395           
1 53199U 22084L   26068.72622870 -.00018764  00000+0 -12974-2 0  9991
2 53199  97.6045 131.2451 0001396  58.4465 301.6898 15.05715066199389
CENTAURI-6              
1 59451U 24066K   26068.32290132  .00007311  00000+0  52686-3 0  9997
2 59451  45.6063  55.7055 0002534 285.4438  74.6166 15.04786474105074
